NORAD_CAT_ID,OBJECT_NAME,OBJECT_TYPE,EPOCH,MEAN_MOTION,ECCENTRICITY,INCLINATION,RA_OF_ASC_NODE,ARG_OF_PERICENTER,MEAN_ANOMALY,BSTAR,MEAN_MOTION_DOT,MEAN_MOTION_DDOT,TLE_LINE0,TLE_LINE1,TLE_LINE2,SEMIMAJOR_AXIS,PERIOD,APOGEE,PERIGEE,DECAYED
51857.0,STARLINK-3571,PAYLOAD,2022-05-16 06:00:02,15.08849853,0.0001528,53.2132,154.5129,59.0438,161.8021,-0.0013568,-0.00021822,0.0,0 STARLINK-3571,1 51857U 22022F   22136.25002315 -.00021822  00000-0 -13568-2 0  9998,2 51857  53.2132 154.5129 0001528  59.0438 161.8021 15.08849853 12650,6917.85,95.437,540.7719999999998,538.658,0.0
51857.0,STARLINK-3571,PAYLOAD,2022-05-16 14:00:01,15.088462,0.0001595,53.2127,153.0168,55.3318,177.044,-0.00055041,-9.039e-05,0.0,0 STARLINK-3571,1 51857U 22022F   22136.58334491 -.00009039  00000-0 -55041-3 0  9996,2 51857  53.2127 153.0168 0001595  55.3318 177.0440 15.08846200  1308,6917.861,95.437,540.83,538.623,0.0
51857.0,STARLINK-3571,PAYLOAD,2022-05-16 22:00:00,15.08812765,0.0001509,53.2127,151.5185,64.4737,179.5152,0.001417,0.00022319,0.0,0 STARLINK-3571,1 51857U 22022F   22136.91667824  .00022319  00000-0  14170-2 0  9993,2 51857  53.2127 151.5185 0001509  64.4737 179.5152 15.08812765  1307,6917.964,95.439,540.873,538.785,0.0
51857.0,STARLINK-3571,PAYLOAD,2022-05-17 06:00:00,15.08834257,0.0001633,53.2128,150.0235,62.0145,193.5471,-0.0012668,-0.0002039,0.0,0 STARLINK-3571,1 51857U 22022F   22137.25001157 -.00020390  00000-0 -12668-2 0  9991,2 51857  53.2128 150.0235 0001633  62.0145 193.5471 15.08834257 12800,6917.898,95.438,540.893,538.633,0.0
51857.0,STARLINK-3571,PAYLOAD,2022-05-17 14:00:01,15.08833496,0.0001654,53.2124,148.5272,58.7049,208.4954,-0.00032987,-5.533e-05,0.0,0 STARLINK-3571,1 51857U 22022F   22137.58335648 -.00005533  00000-0 -32987-3 0  9991,2 51857  53.2124 148.5272 0001654  58.7049 208.4954 15.08833496  1306,6917.9,95.438,540.909,538.621,0.0
51857.0,STARLINK-3571,PAYLOAD,2022-05-17 20:00:01,15.08816435,0.0001539,53.2126,147.4035,65.3536,120.4807,0.0018858,0.00029833,0.0,0 STARLINK-3571,1 51857U 22022F   22137.83334491  .00029833  00000-0  18858-2 0  9991,2 51857  53.2126 147.4035 0001539  65.3536 120.4807 15.08816435 12890,6917.9519999999975,95.439,540.882,538.753,0.0
51857.0,STARLINK-3571,PAYLOAD,2022-05-17 22:00:01,15.08811064,0.0001557,53.2125,147.0291,67.3723,211.4221,0.0029896,0.00047575,0.0,0 STARLINK-3571,1 51857U 22022F   22137.91668981  .00047575  00000-0  29896-2 0  9991,2 51857  53.2125 147.0291 0001557  67.3723 211.4221 15.08811064  1307,6917.969,95.439,540.911,538.757,0.0
51857.0,STARLINK-3571,PAYLOAD,2022-05-18 12:00:00,15.08822742,0.0001693,53.2124,144.4124,59.2303,149.7808,0.0024466,0.00038846,0.0,0 STARLINK-3571,1 51857U 22022F   22138.50001157  .00038846  00000-0  24466-2 0  9992,2 51857  53.2124 144.4124 0001693  59.2303 149.7808 15.08822742 12993,6917.933000000001,95.439,540.969,538.627,0.0
51857.0,STARLINK-3571,PAYLOAD,2022-05-18 14:00:01,15.08850252,0.000166,53.2123,144.0378,59.9707,241.9303,-0.00087453,-0.00014183,0.0,0 STARLINK-3571,1 51857U 22022F   22138.58334491 -.00014183  00000-0 -87453-3 0  9996,2 51857  53.2123 144.0378 0001660  59.9707 241.9303 15.08850252  1303,6917.849,95.437,540.862,538.566,0.0
51857.0,STARLINK-3571,PAYLOAD,2022-05-18 22:00:00,15.08831578,0.0001559,53.2125,142.5397,68.2642,245.2447,0.0014809,0.00023354,0.0,0 STARLINK-3571,1 51857U 22022F   22138.91667824  .00023354  00000-0  14809-2 0  9994,2 51857  53.2125 142.5397 0001559  68.2642 245.2447 15.08831578  1303,6917.906,95.438,540.85,538.693,0.0
51857.0,STARLINK-3571,PAYLOAD,2022-05-19 06:00:00,15.08837207,0.0001635,53.2127,141.0449,61.9498,263.1578,-0.0018297,-0.00029288,0.0,0 STARLINK-3571,1 51857U 22022F   22139.25001157 -.00029288  00000-0 -18297-2 0  9992,2 51857  53.2127 141.0449 0001635  61.9498 263.1578 15.08837207 13101,6917.889,95.438,540.885,538.623,0.0
51857.0,STARLINK-3571,PAYLOAD,2022-05-19 14:00:01,15.08838342,0.0001606,53.2126,139.5483,58.191,278.553,-0.0012835,-0.00020656,0.0,0 STARLINK-3571,1 51857U 22022F   22139.58335648 -.00020656  00000-0 -12835-2 0  9995,2 51857  53.2126 139.5483 0001606  58.1910 278.5530 15.08838342  1303,6917.885,95.438,540.861,538.639,0.0
51857.0,STARLINK-3571,PAYLOAD,2022-05-19 22:00:00,15.08812438,0.0001551,53.2128,138.0504,67.0698,281.2069,0.0030411,0.00048407,0.0,0 STARLINK-3571,1 51857U 22022F   22139.91667824  .00048407  00000-0  30411-2 0  9998,2 51857  53.2128 138.0504 0001551  67.0698 281.2069 15.08812438 13202,6917.965,95.439,540.903,538.757,0.0
51857.0,STARLINK-3571,PAYLOAD,2022-05-20 14:00:01,15.08858671,0.0001674,53.2131,135.059,58.6153,312.8362,-0.0014106,-0.00022679,0.0,0 STARLINK-3571,1 51857U 22022F   22140.58334491 -.00022679  00000-0 -14106-2 0  9992,2 51857  53.2131 135.0590 0001674  58.6153 312.8362 15.08858671 13303,6917.823,95.436,540.846,538.53,0.0
51857.0,STARLINK-3571,PAYLOAD,2022-05-20 22:00:00,15.08843268,0.0001588,53.2135,133.561,66.1526,316.9125,0.001036,0.0001624,0.0,0 STARLINK-3571,1 51857U 22022F   22140.91667824  .00016240  00000-0  10360-2 0  9991,2 51857  53.2135 133.5610 0001588  66.1526 316.9125 15.08843268  1300,6917.87,95.437,540.8340000000002,538.637,0.0
51857.0,STARLINK-3571,PAYLOAD,2022-05-21 06:00:00,15.08842134,0.0001682,53.2137,132.0663,59.7459,334.9316,-0.0013887,-0.00022323,0.0,0 STARLINK-3571,1 51857U 22022F   22141.25001157 -.00022323  00000-0 -13887-2 0  9998,2 51857  53.2137 132.0663 0001682  59.7459 334.9316 15.08842134  1305,6917.874,95.437,540.9019999999998,538.575,0.0
51857.0,STARLINK-3571,PAYLOAD,2022-05-21 14:00:01,15.08853351,0.0001635,53.2137,130.5694,57.7367,348.5896,-0.001351,-0.00021733,0.0,0 STARLINK-3571,1 51857U 22022F   22141.58335648 -.00021733  00000-0 -13510-2 0  9996,2 51857  53.2137 130.5694 0001635  57.7367 348.5896 15.08853351 13463,6917.84,95.437,540.836,538.5740000000002,0.0
51857.0,STARLINK-3571,PAYLOAD,2022-05-21 20:00:01,15.08804442,0.0001501999999999,53.2163,129.4436,54.9845,269.9567,0.0031156,0.00049598,0.0,0 STARLINK-3571,1 51857U 22022F   22141.83334491  .00049598  00000-0  31156-2 0  9992,2 51857  53.2163 129.4436 0001502  54.9845 269.9567 15.08804442 13497,6917.989000000001,95.44,540.893,538.815,0.0
51857.0,STARLINK-3571,PAYLOAD,2022-05-21 22:00:00,15.08826294,0.0001543,53.2165,129.0688,56.0291,1.7981,0.001105,0.00017335,0.0,0 STARLINK-3571,1 51857U 22022F   22141.91667824  .00017335  00000-0  11050-2 0  9995,2 51857  53.2165 129.0688 0001543  56.0291   1.7981 15.08826294  1305,6917.922,95.438,540.855,538.72,0.0
51857.0,STARLINK-3571,PAYLOAD,2022-05-22 06:00:00,15.088255300000002,0.0001602,53.2142,127.5772,57.1915,12.2037,-0.00040074,-6.658e-05,0.0,0 STARLINK-3571,1 51857U 22022F   22142.25001157 -.00006658  00000-0 -40074-3 0  9991,2 51857  53.2142 127.5772 0001602  57.1915  12.2037 15.08825530 13560,6917.925,95.438,540.898,538.681,0.0
51857.0,STARLINK-3571,PAYLOAD,2022-05-22 14:00:01,15.08844715,0.0001551999999999,53.2141,126.0803,56.5299,24.4362,-0.0015242,-0.00024467,0.0,0 STARLINK-3571,1 51857U 22022F   22142.58334491 -.00024467  00000-0 -15242-2 0  9993,2 51857  53.2141 126.0803 0001552  56.5299  24.4362 15.08844715  1301,6917.866,95.437,540.805,538.6569999999998,0.0
51857.0,STARLINK-3571,PAYLOAD,2022-05-22 22:00:01,15.08896796,0.0001581,53.2167,124.5796,57.3279,35.3019,-0.0056768,-0.00089651,0.0,0 STARLINK-3571,1 51857U 22022F   22142.91668981 -.00089651  00000-0 -56768-2 0  9998,2 51857  53.2167 124.5796 0001581  57.3279  35.3019 15.08896796 13660,6917.706999999999,95.434,540.665,538.4780000000002,0.0
51857.0,STARLINK-3571,PAYLOAD,2022-05-23 14:00:01,15.08878767,0.0001481,53.2141,121.5908,57.4053,58.3604,-0.0046029,-0.0007287999999999,0.0,0 STARLINK-3571,1 51857U 22022F   22143.58334491 -.00072880  00000-0 -46029-2 0  9993,2 51857  53.2141 121.5908 0001481  57.4053  58.3604 15.08878767 13768,6917.762,95.435,540.651,538.602,0.0
51857.0,STARLINK-3571,PAYLOAD,2022-05-23 22:00:01,15.08829684,0.0001356,53.2145,120.0932,65.016,62.4254,0.0019154,0.00030319,0.0,0 STARLINK-3571,1 51857U 22022F   22143.91668981  .00030319  00000-0  19154-2 0  9992,2 51857  53.2145 120.0932 0001356  65.0160  62.4254 15.08829684  1306,6917.9119999999975,95.438,540.715,538.839,0.0
51857.0,STARLINK-3571,PAYLOAD,2022-05-24 06:00:02,15.08839708,0.0001492,53.2142,118.5986,57.1471,81.8907,0.00032133,4.83e-05,0.0,0 STARLINK-3571,1 51857U 22022F   22144.25002315  .00004830  00000-0  32133-3 0  9995,2 51857  53.2142 118.5986 0001492  57.1471  81.8907 15.08839708 13864,6917.880999999999,95.438,540.778,538.714,0.0
51857.0,STARLINK-3571,PAYLOAD,2022-05-24 10:09:23,15.08832767,0.0001464,53.2153,117.819,63.5813,296.5329,0.00013826,1.913e-05,0.0,0 STARLINK-3571,1 51857U 22022F   22144.42318557  .00001913  00000-0  13826-3 0  9999,2 51857  53.2153 117.8190 0001464  63.5813 296.5329 15.08832767 13899,6917.901999999999,95.438,540.78,538.755,0.0
51857.0,STARLINK-3571,PAYLOAD,2022-05-24 22:00:00,15.08828183,0.0001463,53.2141,115.6039,69.1491,93.0235,0.0013971,0.0002201,0.0,0 STARLINK-3571,1 51857U 22022F   22144.91667824  .00022010  00000-0  13971-2 0  9998,2 51857  53.2141 115.6039 0001463  69.1491  93.0235 15.08828183 13968,6917.917,95.438,540.794,538.769,0.0
51857.0,STARLINK-3571,PAYLOAD,2022-05-25 14:00:01,15.08860196,0.0001514,53.2133,112.6117,63.9591,121.393,-0.0017177,-0.00027536,0.0,0 STARLINK-3571,1 51857U 22022F   22145.58334491 -.00027536  00000-0 -17177-2 0  9995,2 51857  53.2133 112.6117 0001514  63.9591 121.3930 15.08860196  1305,6917.819,95.436,540.731,538.636,0.0
51857.0,STARLINK-3571,PAYLOAD,2022-05-25 22:00:00,15.08855879,0.0001561,53.2136,111.1146,72.1697,124.789,-0.001474,-0.0002368,0.0,0 STARLINK-3571,1 51857U 22022F   22145.91667824 -.00023680  00000-0 -14740-2 0  9990,2 51857  53.2136 111.1146 0001561  72.1697 124.7890 15.08855879 14112,6917.831999999999,95.437,540.7769999999998,538.617,0.0
